
STARLING 2              
1 57387U 23100B   24349.64588487  .00003171  00000+0  24879-3 0  9992
2 57387  99.4898 231.6832 0006782  87.0830 273.1165 15.01933637 77279
STARLING 1              
1 57388U 23100C   24349.64484249  .00003525  00000+0  27572-3 0  9990
2 57388  99.4934 232.0036 0005910 238.1916 121.8727 15.01955450 77278
STARLING 3              
1 57389U 23100D   24349.71297229  .00003316  00000+0  25972-3 0  9999
2 57389  99.4896 231.7539 0007279  85.9939 274.2112 15.01956850 77280
LEMUR-2-MANO            
1 57390U 23100E   24347.62809482  .00023344  00000+0  12634-2 0  9992
2 57390  99.4671 233.2887 0012561  71.4812 288.7777 15.14605561 77197
LEMUR-2-DEVERILL-M-T    
1 57391U 23100F   24349.75386819  .00019310  00000+0  11537-2 0  9992
2 57391  99.4473 234.2448 0012808  66.4664 293.7904 15.11099146 77488
LEO 3                   
1 57392U 23100G   24348.61664307  .00000016  00000+0  70439-4 0  9999
2 57392  99.5005 108.9428 0018069 356.3211   3.7799 13.68348413 70343
TIANMU-1 07             
1 57399U 23101A   24349.78308244  .00009203  00000+0  41307-3 0  9999
2 57399  97.3397  42.1082 0003046 281.0378  79.0515 15.21396546 77847
TIANMU-1 08             
1 57400U 23101B   24349.75084648  .00009077  00000+0  40703-3 0  9996
2 57400  97.3387  41.9275 0005272 285.8643  74.2012 15.21423449 77831
TIANMU-1 09             
1 57401U 23101C   24349.80059826  .00009060  00000+0  40670-3 0  9998
2 57401  97.3341  41.7095 0005021 282.1411  77.9263 15.21390239 77844
TIANMU-1 10             
1 57402U 23101D   24349.76785322  .00009842  00000+0  44120-3 0  9993
2 57402  97.3422  42.1414 0007134 279.4744  80.5686 15.21402508 77831
STARLINK-30240          
1 57404U 23102A   24348.57173966  .00000454  00000+0  48680-4 0  9995
2 57404  43.0023 180.3723 0001198 263.3774  96.6932 15.02537165 78374
STARLINK-30192          
1 57405U 23102B   24347.97010610 -.00001999  00000+0 -13294-3 0  9994
2 57405  43.0028 183.5822 0001339 261.9660  98.1030 15.02532948 78280
STARLINK-30195          
1 57406U 23102C   24348.83099218  .00000310  00000+0  38037-4 0  9999
2 57406  43.0019 178.8725 0001104 269.5822  90.4894 15.02539899 78414
STARLINK-30207          
1 57407U 23102D   24348.79796808  .00000158  00000+0  26764-4 0  9998
2 57407  43.0029 165.7114 0001426 243.1330 116.9366 15.02541030 78566
STARLINK-30205          
1 57408U 23102E   24348.82100595 -.00000010  00000+0  14351-4 0  9992
2 57408  43.0026 178.8039 0001242 263.1018  96.9683 15.02534902 78419
STARLINK-30222          
1 57409U 23102F   24348.54510758  .00000620  00000+0  60938-4 0  9996
2 57409  43.0022 180.1742 0001171 266.2972  93.7736 15.02536495 78375
STARLINK-30172          
1 57410U 23102G   24348.81764687  .00003947  00000+0  30698-3 0  9994
2 57410  42.9996 178.7602 0001876 259.7660 100.2971 15.02551962 78412
STARLINK-30214          
1 57411U 23102H   24348.58828604  .00001816  00000+0  14943-3 0  9997
2 57411  43.0028 179.6428 0001104 261.0348  99.0370 15.02539084 78330
STARLINK-30182          
1 57412U 23102J   24349.74504481 -.00001438  00000+0 -91393-4 0  9998
2 57412  43.0034 173.6950 0001618 261.8044  98.2615 15.02524273 78554
STARLINK-30191          
1 57413U 23102K   24348.60492533  .00002974  00000+0  23512-3 0  9998
2 57413  43.0014 179.7581 0001300 266.5255  93.5439 15.02538695 78380
STARLINK-30193          
1 57414U 23102L   24349.60541776 -.00000501  00000+0 -22032-4 0  9997
2 57414  43.0023 174.3666 0000762 273.8367  86.2388 15.02547273 78533
STARLINK-30208          
1 57415U 23102M   24348.80102859  .00000234  00000+0  32378-4 0  9999
2 57415  43.0023 178.6524 0001246 259.7245 100.3457 15.02534719 78200
STARLINK-30224          
1 57416U 23102N   24348.79769278  .00000815  00000+0  75401-4 0  9991
2 57416  43.0015 178.6271 0002478 295.4800  64.5786 15.02536512 78415
STARLINK-30043          
1 57417U 23102P   24348.52512434  .00000798  00000+0  74134-4 0  9995
2 57417  43.0029 180.0184 0001055 270.8852  89.1869 15.02539427 78373
STARLINK-30221          
1 57418U 23102Q   24348.52845311  .00002117  00000+0  17174-3 0  9996
2 57418  43.0023 180.0473 0000930 267.9844  92.0892 15.02540729 78374
2023-103B               
1 57422U 23103B   24349.76435836  .00114893  00000+0  43616-3 0  9991
2 57422  96.5463  51.1590 0008235  68.9508 291.2645 15.87271763 79372
2023-104A               
1 57424U 23104A   24349.79110977  .00007123  00000+0  24084-3 0  9998
2 57424  97.3379  55.7639 0009158 276.7429  83.2770 15.30898241 77997
2023-104B               
1 57425U 23104B   24349.79659954  .00025855  00000+0  66576-3 0  9996
2 57425  97.3347  56.7341 0009546 270.2872  89.7280 15.39162576 78066
2023-104C               
1 57426U 23104C   24349.91483707  .00031794  00000+0  11394-2 0  9998
2 57426  97.3354  55.2569 0008884 215.9524 144.1119 15.28636365 77982
STARLINK-30189          
1 57430U 23105A   24349.62516106  .00000796  00000+0  73998-4 0  9990
2 57430  43.0022 187.6552 0001205 264.0062  96.0643 15.02532963 77811
STARLINK-30170          
1 57431U 23105B   24348.02636311  .00000879  00000+0  80169-4 0  9995
2 57431  43.0027 196.2987 0001069 260.0283 100.0439 15.02533134 77623
STARLINK-30188          
1 57432U 23105C   24349.61849781  .00000527  00000+0  54088-4 0  9990
2 57432  43.0030 187.6049 0001489 274.8203  85.2469 15.02539967 77821
STARLINK-30105          
1 57433U 23105D   24348.54274119 -.00000240  00000+0  15189-5 0  9992
2 57433  43.0023  69.4691 0001403 274.2872  85.7824 15.40697895 79207
STARLINK-30102          
1 57434U 23105E   24349.61184137  .00000103  00000+0  22715-4 0  9991
2 57434  43.0030 187.5531 0001026 268.4043  91.6682 15.02540350 77800
STARLINK-30180          
1 57435U 23105F   24349.61517003  .00000452  00000+0  48567-4 0  9994
2 57435  43.0035 187.5793 0001233 262.3642  97.7061 15.02535844 77916
STARLINK-30183          
1 57436U 23105G   24348.98734575  .00006436  00000+0  47596-3 0  9997
2 57436  42.9985 190.6055 0001898 251.6137 108.4499 15.03726007 77775
STARLINK-30237          
1 57437U 23105H   24349.93423935  .00000049  00000+0  18723-4 0  9994
2 57437  43.0030 185.6706 0001294 261.0617  99.0079 15.02535564 77903
STARLINK-30158          
1 57438U 23105J   24349.87109073  .00000046  00000+0  18455-4 0  9991
2 57438  43.0030 186.0584 0001317 265.5449  94.5243 15.02537629 77896
STARLINK-30173          
1 57439U 23105K   24349.22647199  .00000198  00000+0  29706-4 0  9996
2 57439  43.0016 176.2442 0001037 265.6942  94.3782 15.02534026 77965
STARLINK-30159          
1 57440U 23105L   24348.86724830  .00001930  00000+0  15783-3 0  9999
2 57440  43.0023 191.4246 0001122 259.1502 100.9214 15.02549883 77603
STARLINK-30160          
1 57441U 23105M   24348.93035564  .00007724  00000+0  58538-3 0  9999
2 57441  43.0062 191.0372 0001603 268.0671  91.9987 15.02592032 77591
STARLINK-30146          
1 57442U 23105N   24348.99355296 -.00007372  00000+0 -53060-3 0  9999
2 57442  43.0012 190.6544 0001769 276.6746  83.3895 15.02576710 77839
STARLINK-30197          
1 57443U 23105P   24347.99308509 -.00000099  00000+0  77387-5 0  9992
2 57443  43.0026 196.0468 0001008 263.4752  96.5976 15.02528245 77619
STARLINK-30181          
1 57444U 23105Q   24349.90760361 -.00000131  00000+0  53709-5 0  9993
2 57444  43.0026 185.4716 0001281 248.3641 111.7065 15.02548860 77962
STARLINK-30215          
1 57445U 23105R   24348.98135510  .00000227  00000+0  31873-4 0  9995
2 57445  43.0026 190.5631 0000982 272.4623  87.6107 15.02534401 77572
STARLINK-30162          
1 57446U 23105S   24349.90457380 -.00000465  00000+0 -19385-4 0  9991
2 57446  43.0010 172.7131 0001107 272.1111  87.9604 15.02532716 78058
STARLINK-30178          
1 57447U 23105T   24349.91092776 -.00000579  00000+0 -27773-4 0  9993
2 57447  43.0016 185.4959 0000985 262.0783  97.9948 15.02531388 77909
STARLINK-30196          
1 57448U 23105U   24348.90375467 -.00014914  00000+0 -10886-2 0  9996
2 57448  43.0001 190.8419 0001297 247.4957 112.5748 15.02629151 77595
STARLINK-30225          
1 57449U 23105V   24348.83396687  .00000666  00000+0  64336-4 0  9994
2 57449  43.0026 191.1748 0001270 266.5344  93.5353 15.02535923 77846
STARLINK-30217          
1 57450U 23105W   24348.82427966  .00000318  00000+0  38573-4 0  9998
2 57450  43.0008 178.4159 0001212 263.8921  96.1783 15.02536516 77901
STARLINK-30216          
1 57451U 23105X   24349.62837295  .00000870  00000+0  79497-4 0  9991
2 57451  43.0033 186.8329 0001207 270.0979  89.9725 15.02537898 77707
YAOGAN-36 05A           
1 57452U 23106A   24349.82376113  .00023481  00000+0  97374-3 0  9998
2 57452  35.0019 272.4245 0004107 239.3012 120.7298 15.22973276 77345
YAOGAN-36 05B           
1 57454U 23106C   24349.88798109  .00017298  00000+0  72163-3 0  9997
2 57454  34.9960 271.9138 0008558 152.1595 207.9579 15.22794362 77311
YAOGAN-36 05C           
1 57456U 23106E   24349.94893902  .00028260  00000+0  11753-2 0  9991
2 57456  34.9948 271.4129 0012213 316.7056  43.2699 15.22785240 77327
STARLINK-30165          
1 57457U 23107A   24349.12489878 -.00008835  00000+0 -63903-3 0  9999
2 57457  43.0030 267.4836 0001634 265.8808  94.1848 15.02577068 76993
STARLINK-30140          
1 57458U 23107B   24348.52328433  .00003165  00000+0  24930-3 0  9998
2 57458  43.0029 270.7086 0001393 269.4253  90.6430 15.02532810 77234
STARLINK-30185          
1 57459U 23107C   24348.51996622 -.00000824  00000+0 -45918-4 0  9990
2 57459  43.0023 270.6810 0001424 270.5317  89.5363 15.02521582 77227
STARLINK-30077          
1 57460U 23107D   24348.91548567  .00001234  00000+0  10638-3 0  9991
2 57460  43.0018 268.4902 0000978 280.8988  79.1744 15.02539513 77299
